SL-14 R/B               
1 18749U 88001B   25333.91226381  .00000646  00000+0  72102-4 0  9995
2 18749  82.5120 289.2131 0017328 203.7276 156.3143 14.85401954 27219
COSMOS 1933             
1 18958U 88020A   25334.08850112  .00004347  00000+0  21881-3 0  9991
2 18958  82.5137 349.3791 0004601 163.3137 196.8249 15.16951626 35122
SL-3 R/B                
1 19046U 88032B   25334.07878301  .00006182  00000+0  30018-3 0  9993
2 19046  97.5068 312.8900 0025397 218.0700 141.8740 15.18544521 36981
SL-16 R/B               
1 19120U 88039B   25334.06349701 -.00000093  00000+0 -21409-4 0  9991
2 19120  71.0146 279.2002 0020192 137.5454 222.7238 14.19593017944248
COSMOS 1953             
1 19210U 88050A   25334.05562966  .00007284  00000+0  27539-3 0  9999
2 19210  82.5086 258.3055 0013686 109.9550 250.3164 15.26707766 22579
SL-8 R/B                
1 19257U 88053B   25334.15463516  .00000284  00000+0  10074-3 0  9994
2 19257  74.0472 295.9143 0019335 144.5086 226.9056 14.38846821962284
COSMOS 1975             
1 19573U 88093A   25334.12805432  .00008754  00000+0  33673-3 0  9993
2 19573  82.5215 217.4499 0011908 152.4611 207.7261 15.26183113  4218
SL-14 R/B               
1 19574U 88093B   25333.98409296  .00000614  00000+0  68019-4 0  9995
2 19574  82.5294 135.6376 0021023  12.2798  85.5595 14.85527406986233
SL-16 R/B               
1 19650U 88102B   25334.09718348  .00000015  00000+0  31776-4 0  9990
2 19650  71.0007   1.0453 0013629 172.4372 187.6959 14.16137211912798
INTERCOSMOS 24          
1 20261U 89080A   25334.03215323  .00000884  00000+0  25490-3 0  9994
2 20261  82.6045 169.2154 1188658 163.9909 200.2449 12.59404508654251
SL-14 R/B               
1 20262U 89080C   25334.10320804  .00000502  00000+0  14366-3 0  9991
2 20262  82.5939 237.1304 1230863  52.4620 318.2033 12.50397465647708
DELTA 1 R/B             
1 20323U 89089B   25334.08536962  .00000437  00000+0  11671-3 0  9992
2 20323  97.0762 192.3278 0070693  77.5515 283.3582 14.50556071881293
