CCSDS_OMM_VERS = 2.0
CREATION_DATE  = 
ORIGINATOR     = 

OBJECT_NAME    = SL-14 R/B
OBJECT_ID      = 1988-001B
CENTER_NAME    = EARTH
REF_FRAME      = TEME
TIME_SYSTEM    = UTC
MEAN_ELEMENT_THEORY = SGP/SGP4

EPOCH          = 2025-11-29T21:53:39.593184
MEAN_MOTION    = 14.85401954
ECCENTRICITY   = .0017328
INCLINATION    = 82.5120
RA_OF_ASC_NODE = 289.2131
ARG_OF_PERICENTER = 203.7276
MEAN_ANOMALY   = 156.3143

EPHEMERIS_TYPE = 0
CLASSIFICATION_TYPE = U
NORAD_CAT_ID   = 18749
ELEMENT_SET_NO = 999
REV_AT_EPOCH   = 2721
BSTAR          = .72102E-4
MEAN_MOTION_DOT = .646E-5
MEAN_MOTION_DDOT = 0

CCSDS_OMM_VERS = 2.0
CREATION_DATE  = 
ORIGINATOR     = 

OBJECT_NAME    = COSMOS 1933
OBJECT_ID      = 1988-020A
CENTER_NAME    = EARTH
REF_FRAME      = TEME
TIME_SYSTEM    = UTC
MEAN_ELEMENT_THEORY = SGP/SGP4

EPOCH          = 2025-11-30T02:07:26.496768
MEAN_MOTION    = 15.16951626
ECCENTRICITY   = .0004601
INCLINATION    = 82.5137
RA_OF_ASC_NODE = 349.3791
ARG_OF_PERICENTER = 163.3137
MEAN_ANOMALY   = 196.8249

EPHEMERIS_TYPE = 0
CLASSIFICATION_TYPE = U
NORAD_CAT_ID   = 18958
ELEMENT_SET_NO = 999
REV_AT_EPOCH   = 3512
BSTAR          = .21881E-3
MEAN_MOTION_DOT = .4347E-4
MEAN_MOTION_DDOT = 0

CCSDS_OMM_VERS = 2.0
CREATION_DATE  = 
ORIGINATOR     = 

OBJECT_NAME    = SL-3 R/B
OBJECT_ID      = 1988-032B
CENTER_NAME    = EARTH
REF_FRAME      = TEME
TIME_SYSTEM    = UTC
MEAN_ELEMENT_THEORY = SGP/SGP4

EPOCH          = 2025-11-30T01:53:26.852064
MEAN_MOTION    = 15.18544521
ECCENTRICITY   = .0025397
INCLINATION    = 97.5068
RA_OF_ASC_NODE = 312.8900
ARG_OF_PERICENTER = 218.0700
MEAN_ANOMALY   = 141.8740

EPHEMERIS_TYPE = 0
CLASSIFICATION_TYPE = U
NORAD_CAT_ID   = 19046
ELEMENT_SET_NO = 999
REV_AT_EPOCH   = 3698
BSTAR          = .30018E-3
MEAN_MOTION_DOT = .6182E-4
MEAN_MOTION_DDOT = 0

CCSDS_OMM_VERS = 2.0
CREATION_DATE  = 
ORIGINATOR     = 

OBJECT_NAME    = SL-16 R/B
OBJECT_ID      = 1988-039B
CENTER_NAME    = EARTH
REF_FRAME      = TEME
TIME_SYSTEM    = UTC
MEAN_ELEMENT_THEORY = SGP/SGP4

EPOCH          = 2025-11-30T01:31:26.141664
MEAN_MOTION    = 14.19593017
ECCENTRICITY   = .0020192
INCLINATION    = 71.0146
RA_OF_ASC_NODE = 279.2002
ARG_OF_PERICENTER = 137.5454
MEAN_ANOMALY   = 222.7238

EPHEMERIS_TYPE = 0
CLASSIFICATION_TYPE = U
NORAD_CAT_ID   = 19120
ELEMENT_SET_NO = 999
REV_AT_EPOCH   = 94424
BSTAR          = -.21409E-4
MEAN_MOTION_DOT = -.93E-6
MEAN_MOTION_DDOT = 0

CCSDS_OMM_VERS = 2.0
CREATION_DATE  = 
ORIGINATOR     = 

OBJECT_NAME    = COSMOS 1953
OBJECT_ID      = 1988-050A
CENTER_NAME    = EARTH
REF_FRAME      = TEME
TIME_SYSTEM    = UTC
MEAN_ELEMENT_THEORY = SGP/SGP4

EPOCH          = 2025-11-30T01:20:06.402624
MEAN_MOTION    = 15.26707766
ECCENTRICITY   = .0013686
INCLINATION    = 82.5086
RA_OF_ASC_NODE = 258.3055
ARG_OF_PERICENTER = 109.9550
MEAN_ANOMALY   = 250.3164

EPHEMERIS_TYPE = 0
CLASSIFICATION_TYPE = U
NORAD_CAT_ID   = 19210
ELEMENT_SET_NO = 999
REV_AT_EPOCH   = 2257
BSTAR          = .27539E-3
MEAN_MOTION_DOT = .7284E-4
MEAN_MOTION_DDOT = 0

CCSDS_OMM_VERS = 2.0
CREATION_DATE  = 
ORIGINATOR     = 

OBJECT_NAME    = SL-8 R/B
OBJECT_ID      = 1988-053B
CENTER_NAME    = EARTH
REF_FRAME      = TEME
TIME_SYSTEM    = UTC
MEAN_ELEMENT_THEORY = SGP/SGP4

EPOCH          = 2025-11-30T03:42:40.477824
MEAN_MOTION    = 14.38846821
ECCENTRICITY   = .0019335
INCLINATION    = 74.0472
RA_OF_ASC_NODE = 295.9143
ARG_OF_PERICENTER = 144.5086
MEAN_ANOMALY   = 226.9056

EPHEMERIS_TYPE = 0
CLASSIFICATION_TYPE = U
NORAD_CAT_ID   = 19257
ELEMENT_SET_NO = 999
REV_AT_EPOCH   = 96228
BSTAR          = .10074E-3
MEAN_MOTION_DOT = .284E-5
MEAN_MOTION_DDOT = 0

CCSDS_OMM_VERS = 2.0
CREATION_DATE  = 
ORIGINATOR     = 

OBJECT_NAME    = COSMOS 1975
OBJECT_ID      = 1988-093A
CENTER_NAME    = EARTH
REF_FRAME      = TEME
TIME_SYSTEM    = UTC
MEAN_ELEMENT_THEORY = SGP/SGP4

EPOCH          = 2025-11-30T03:04:23.893248
MEAN_MOTION    = 15.26183113
ECCENTRICITY   = .0011908
INCLINATION    = 82.5215
RA_OF_ASC_NODE = 217.4499
ARG_OF_PERICENTER = 152.4611
MEAN_ANOMALY   = 207.7261

EPHEMERIS_TYPE = 0
CLASSIFICATION_TYPE = U
NORAD_CAT_ID   = 19573
ELEMENT_SET_NO = 999
REV_AT_EPOCH   = 421
BSTAR          = .33673E-3
MEAN_MOTION_DOT = .8754E-4
MEAN_MOTION_DDOT = 0

CCSDS_OMM_VERS = 2.0
CREATION_DATE  = 
ORIGINATOR     = 

OBJECT_NAME    = SL-14 R/B
OBJECT_ID      = 1988-093B
CENTER_NAME    = EARTH
REF_FRAME      = TEME
TIME_SYSTEM    = UTC
MEAN_ELEMENT_THEORY = SGP/SGP4

EPOCH          = 2025-11-29T23:37:05.631744
MEAN_MOTION    = 14.85527406
ECCENTRICITY   = .0021023
INCLINATION    = 82.5294
RA_OF_ASC_NODE = 135.6376
ARG_OF_PERICENTER = 12.2798
MEAN_ANOMALY   = 85.5595

EPHEMERIS_TYPE = 0
CLASSIFICATION_TYPE = U
NORAD_CAT_ID   = 19574
ELEMENT_SET_NO = 999
REV_AT_EPOCH   = 98623
BSTAR          = .68019E-4
MEAN_MOTION_DOT = .614E-5
MEAN_MOTION_DDOT = 0

CCSDS_OMM_VERS = 2.0
CREATION_DATE  = 
ORIGINATOR     = 

OBJECT_NAME    = SL-16 R/B
OBJECT_ID      = 1988-102B
CENTER_NAME    = EARTH
REF_FRAME      = TEME
TIME_SYSTEM    = UTC
MEAN_ELEMENT_THEORY = SGP/SGP4

EPOCH          = 2025-11-30T02:19:56.652672
MEAN_MOTION    = 14.16137211
ECCENTRICITY   = .0013629
INCLINATION    = 71.0007
RA_OF_ASC_NODE = 1.0453
ARG_OF_PERICENTER = 172.4372
MEAN_ANOMALY   = 187.6959

EPHEMERIS_TYPE = 0
CLASSIFICATION_TYPE = U
NORAD_CAT_ID   = 19650
ELEMENT_SET_NO = 999
REV_AT_EPOCH   = 91279
BSTAR          = .31776E-4
MEAN_MOTION_DOT = .15E-6
MEAN_MOTION_DDOT = 0

CCSDS_OMM_VERS = 2.0
CREATION_DATE  = 
ORIGINATOR     = 

OBJECT_NAME    = INTERCOSMOS 24
OBJECT_ID      = 1989-080A
CENTER_NAME    = EARTH
REF_FRAME      = TEME
TIME_SYSTEM    = UTC
MEAN_ELEMENT_THEORY = SGP/SGP4

EPOCH          = 2025-11-30T00:46:18.039072
MEAN_MOTION    = 12.59404508
ECCENTRICITY   = .1188658
INCLINATION    = 82.6045
RA_OF_ASC_NODE = 169.2154
ARG_OF_PERICENTER = 163.9909
MEAN_ANOMALY   = 200.2449

EPHEMERIS_TYPE = 0
CLASSIFICATION_TYPE = U
NORAD_CAT_ID   = 20261
ELEMENT_SET_NO = 999
REV_AT_EPOCH   = 65425
BSTAR          = .2549E-3
MEAN_MOTION_DOT = .884E-5
MEAN_MOTION_DDOT = 0

CCSDS_OMM_VERS = 2.0
CREATION_DATE  = 
ORIGINATOR     = 

OBJECT_NAME    = SL-14 R/B
OBJECT_ID      = 1989-080C
CENTER_NAME    = EARTH
REF_FRAME      = TEME
TIME_SYSTEM    = UTC
MEAN_ELEMENT_THEORY = SGP/SGP4

EPOCH          = 2025-11-30T02:28:37.174656
MEAN_MOTION    = 12.50397465
ECCENTRICITY   = .1230863
INCLINATION    = 82.5939
RA_OF_ASC_NODE = 237.1304
ARG_OF_PERICENTER = 52.4620
MEAN_ANOMALY   = 318.2033

EPHEMERIS_TYPE = 0
CLASSIFICATION_TYPE = U
NORAD_CAT_ID   = 20262
ELEMENT_SET_NO = 999
REV_AT_EPOCH   = 64770
BSTAR          = .14366E-3
MEAN_MOTION_DOT = .502E-5
MEAN_MOTION_DDOT = 0

CCSDS_OMM_VERS = 2.0
CREATION_DATE  = 
ORIGINATOR     = 

OBJECT_NAME    = DELTA 1 R/B
OBJECT_ID      = 1989-089B
CENTER_NAME    = EARTH
REF_FRAME      = TEME
TIME_SYSTEM    = UTC
MEAN_ELEMENT_THEORY = SGP/SGP4

EPOCH          = 2025-11-30T02:02:55.935168
MEAN_MOTION    = 14.50556071
ECCENTRICITY   = .0070693
INCLINATION    = 97.0762
RA_OF_ASC_NODE = 192.3278
ARG_OF_PERICENTER = 77.5515
MEAN_ANOMALY   = 283.3582

EPHEMERIS_TYPE = 0
CLASSIFICATION_TYPE = U
NORAD_CAT_ID   = 20323
ELEMENT_SET_NO = 999
REV_AT_EPOCH   = 88129
BSTAR          = .11671E-3
MEAN_MOTION_DOT = .437E-5
MEAN_MOTION_DDOT = 0

